[{"OBJECT_NAME":"TIANQI-38","OBJECT_ID":"2026-010B","EPOCH":"2026-03-09T18:17:47.215392","MEAN_MOTION":13.991234,"ECCENTRICITY":0.00115193,"INCLINATION":44.9777,"RA_OF_ASC_NODE":163.9044,"ARG_OF_PERICENTER":223.2713,"MEAN_ANOMALY":136.7215,"EPHEMERIS_TYPE":0,"CLASSIFICATION_TYPE":"U","NORAD_CAT_ID":67477,"ELEMENT_SET_NO":999,"REV_AT_EPOCH":747,"BSTAR":0.00024396988,"MEAN_MOTION_DOT":2.27e-6,"MEAN_MOTION_DDOT":0},{"OBJECT_NAME":"DIAMANT B-P4 R\/B","OBJECT_ID":"1975-010B","EPOCH":"2026-03-09T10:55:31.279296","MEAN_MOTION":13.8233301,"ECCENTRICITY":0.02172936,"INCLINATION":49.8284,"RA_OF_ASC_NODE":341.5588,"ARG_OF_PERICENTER":277.4204,"MEAN_ANOMALY":80.2047,"EPHEMERIS_TYPE":0,"CLASSIFICATION_TYPE":"U","NORAD_CAT_ID":7647,"ELEMENT_SET_NO":999,"REV_AT_EPOCH":57724,"BSTAR":7.3054711e-5,"MEAN_MOTION_DOT":-4.6e-7,"MEAN_MOTION_DDOT":0}]
